ONEWEB-0116             
1 48046U 21025E   26204.53950998  .00000115  00000+0  27945-3 0  9990
2 48046  87.8994 312.9875 0001902 103.6823 256.4518 13.13469968258421
ONEWEB-0150             
1 48047U 21025F   26204.28728639  .00000305  00000+0  80054-3 0  9999
2 48047  87.8988 313.0352 0001900  97.6631 262.4714 13.13470277258288
ONEWEB-0107             
1 48048U 21025G   26204.74603120  .00000075  00000+0  16989-3 0  9998
2 48048  87.8994 312.9397 0002048  96.5144 263.6218 13.13471055258326
ONEWEB-0101             
1 48049U 21025H   26204.55643029 -.00000241  00000+0 -69427-3 0  9992
2 48049  87.8980 312.9893 0002109 100.9415 259.1951 13.13471547258276
ONEWEB-0113             
1 48050U 21025J   26204.72142492 -.00000214  00000+0 -61717-3 0  9995
2 48050  87.8981 312.8629 0001849  96.4574 263.6766 13.13890903258400
ONEWEB-0112             
1 48051U 21025K   26204.75112403  .00000265  00000+0  69051-3 0  9991
2 48051  87.8986 312.9363 0002310 100.8043 259.3347 13.13469661258395
ONEWEB-0156             
1 48052U 21025L   26204.30250574  .00000296  00000+0  77699-3 0  9996
2 48052  87.8989 313.0357 0001976  95.8026 264.3328 13.13468377258315
ONEWEB-0161             
1 48053U 21025M   26204.73417111  .00000072  00000+0  16356-3 0  9991
2 48053  87.8990 312.9506 0002035  94.3231 265.8131 13.13474378258306
ONEWEB-0158             
1 48054U 21025N   26204.76973888  .00000042  00000+0  79301-4 0  9990
2 48054  87.8989 312.9412 0001917 108.9749 251.1587 13.13471402258437
ONEWEB-0157             
1 48055U 21025P   26204.71893674 -.00000304  00000+0 -86676-3 0  9995
2 48055  87.8983 312.9557 0002251  93.3355 266.8031 13.13472066258360
ONEWEB-0162             
1 48056U 21025Q   26204.54277028  .00000039  00000+0  71277-4 0  9991
2 48056  87.8985 312.9909 0001867  96.3209 263.8132 13.13469521258313
ONEWEB-0155             
1 48057U 21025R   26204.70201128 -.00000185  00000+0 -54195-3 0  9991
2 48057  87.8987 312.9558 0001975  96.6144 263.5210 13.13468373258472
ONEWEB-0149             
1 48058U 21025S   26204.72403338 -.00000247  00000+0 -71181-3 0  9994
2 48058  87.8991 312.9562 0001789  94.4872 265.6461 13.13470644258284
ONEWEB-0148             
1 48059U 21025T   26204.68679441  .00000192  00000+0  49060-3 0  9998
2 48059  87.8981 312.9680 0001731  83.2757 276.8569 13.13469580258404
ONEWEB-0160             
1 48060U 21025U   26204.70371331 -.00000183  00000+0 -53540-3 0  9990
2 48060  87.8980 312.9602 0001666 120.3003 239.8291 13.13469619258351
ONEWEB-0163             
1 48061U 21025V   26204.53613235  .00000192  00000+0  49053-3 0  9996
2 48061  87.8993 312.9915 0002202  94.9199 265.2182 13.13469418258452
