{"fetched_at":"2026-07-24T07:06:08.057Z","source":"https://celestrak.org/NORAD/elements/gp.php?GROUP=oneweb&FORMAT=JSON","constellation":"oneweb","records":[{"OBJECT_NAME":"ONEWEB-0116","OBJECT_ID":"2021-025E","EPOCH":"2026-07-23T12:56:53.662272","CLASSIFICATION_TYPE":"U","MEAN_MOTION":13.13469968,"ECCENTRICITY":0.0001902,"INCLINATION":87.8994,"RA_OF_ASC_NODE":312.9875,"ARG_OF_PERICENTER":103.6823,"MEAN_ANOMALY":256.4518,"EPHEMERIS_TYPE":0,"NORAD_CAT_ID":48046,"ELEMENT_SET_NO":999,"REV_AT_EPOCH":25842,"BSTAR":0.00027945,"MEAN_MOTION_DOT":0.00000115,"MEAN_MOTION_DDOT":0},{"OBJECT_NAME":"ONEWEB-0150","OBJECT_ID":"2021-025F","EPOCH":"2026-07-23T06:53:41.544096","CLASSIFICATION_TYPE":"U","MEAN_MOTION":13.13470277,"ECCENTRICITY":0.00019,"INCLINATION":87.8988,"RA_OF_ASC_NODE":313.0352,"ARG_OF_PERICENTER":97.6631,"MEAN_ANOMALY":262.4714,"EPHEMERIS_TYPE":0,"NORAD_CAT_ID":48047,"ELEMENT_SET_NO":999,"REV_AT_EPOCH":25828,"BSTAR":0.00080054,"MEAN_MOTION_DOT":0.00000305,"MEAN_MOTION_DDOT":0},{"OBJECT_NAME":"ONEWEB-0107","OBJECT_ID":"2021-025G","EPOCH":"2026-07-23T17:54:17.095680","CLASSIFICATION_TYPE":"U","MEAN_MOTION":13.13471055,"ECCENTRICITY":0.0002048,"INCLINATION":87.8994,"RA_OF_ASC_NODE":312.9397,"ARG_OF_PERICENTER":96.5144,"MEAN_ANOMALY":263.6218,"EPHEMERIS_TYPE":0,"NORAD_CAT_ID":48048,"ELEMENT_SET_NO":999,"REV_AT_EPOCH":25832,"BSTAR":0.00016989,"MEAN_MOTION_DOT":7.5e-7,"MEAN_MOTION_DDOT":0},{"OBJECT_NAME":"ONEWEB-0101","OBJECT_ID":"2021-025H","EPOCH":"2026-07-23T13:21:15.577056","CLASSIFICATION_TYPE":"U","MEAN_MOTION":13.13471547,"ECCENTRICITY":0.0002109,"INCLINATION":87.898,"RA_OF_ASC_NODE":312.9893,"ARG_OF_PERICENTER":100.9415,"MEAN_ANOMALY":259.1951,"EPHEMERIS_TYPE":0,"NORAD_CAT_ID":48049,"ELEMENT_SET_NO":999,"REV_AT_EPOCH":25827,"BSTAR":-0.00069427,"MEAN_MOTION_DOT":-0.00000241,"MEAN_MOTION_DDOT":0},{"OBJECT_NAME":"ONEWEB-0113","OBJECT_ID":"2021-025J","EPOCH":"2026-07-23T17:18:51.113088","CLASSIFICATION_TYPE":"U","MEAN_MOTION":13.13890903,"ECCENTRICITY":0.0001849,"INCLINATION":87.8981,"RA_OF_ASC_NODE":312.8629,"ARG_OF_PERICENTER":96.4574,"MEAN_ANOMALY":263.6766,"EPHEMERIS_TYPE":0,"NORAD_CAT_ID":48050,"ELEMENT_SET_NO":999,"REV_AT_EPOCH":25840,"BSTAR":-0.00061717,"MEAN_MOTION_DOT":-0.00000214,"MEAN_MOTION_DDOT":0},{"OBJECT_NAME":"ONEWEB-0112","OBJECT_ID":"2021-025K","EPOCH":"2026-07-23T18:01:37.116192","CLASSIFICATION_TYPE":"U","MEAN_MOTION":13.13469661,"ECCENTRICITY":0.000231,"INCLINATION":87.8986,"RA_OF_ASC_NODE":312.9363,"ARG_OF_PERICENTER":100.8043,"MEAN_ANOMALY":259.3347,"EPHEMERIS_TYPE":0,"NORAD_CAT_ID":48051,"ELEMENT_SET_NO":999,"REV_AT_EPOCH":25839,"BSTAR":0.00069051,"MEAN_MOTION_DOT":0.00000265,"MEAN_MOTION_DDOT":0},{"OBJECT_NAME":"ONEWEB-0156","OBJECT_ID":"2021-025L","EPOCH":"2026-07-23T07:15:36.495936","CLASSIFICATION_TYPE":"U","MEAN_MOTION":13.13468377,"ECCENTRICITY":0.0001976,"INCLINATION":87.8989,"RA_OF_ASC_NODE":313.0357,"ARG_OF_PERICENTER":95.8026,"MEAN_ANOMALY":264.3328,"EPHEMERIS_TYPE":0,"NORAD_CAT_ID":48052,"ELEMENT_SET_NO":999,"REV_AT_EPOCH":25831,"BSTAR":0.00077699,"MEAN_MOTION_DOT":0.00000296,"MEAN_MOTION_DDOT":0},{"OBJECT_NAME":"ONEWEB-0161","OBJECT_ID":"2021-025M","EPOCH":"2026-07-23T17:37:12.383904","CLASSIFICATION_TYPE":"U","MEAN_MOTION":13.13474378,"ECCENTRICITY":0.0002035,"INCLINATION":87.899,"RA_OF_ASC_NODE":312.9506,"ARG_OF_PERICENTER":94.3231,"MEAN_ANOMALY":265.8131,"EPHEMERIS_TYPE":0,"NORAD_CAT_ID":48053,"ELEMENT_SET_NO":999,"REV_AT_EPOCH":25830,"BSTAR":0.00016356,"MEAN_MOTION_DOT":7.2e-7,"MEAN_MOTION_DDOT":0},{"OBJECT_NAME":"ONEWEB-0158","OBJECT_ID":"2021-025N","EPOCH":"2026-07-23T18:28:25.439232","CLASSIFICATION_TYPE":"U","MEAN_MOTION":13.13471402,"ECCENTRICITY":0.0001917,"INCLINATION":87.8989,"RA_OF_ASC_NODE":312.9412,"ARG_OF_PERICENTER":108.9749,"MEAN_ANOMALY":251.1587,"EPHEMERIS_TYPE":0,"NORAD_CAT_ID":48054,"ELEMENT_SET_NO":999,"REV_AT_EPOCH":25843,"BSTAR":0.000079301,"MEAN_MOTION_DOT":4.2e-7,"MEAN_MOTION_DDOT":0},{"OBJECT_NAME":"ONEWEB-0157","OBJECT_ID":"2021-025P","EPOCH":"2026-07-23T17:15:16.134336","CLASSIFICATION_TYPE":"U","MEAN_MOTION":13.13472066,"ECCENTRICITY":0.0002251,"INCLINATION":87.8983,"RA_OF_ASC_NODE":312.9557,"ARG_OF_PERICENTER":93.3355,"MEAN_ANOMALY":266.8031,"EPHEMERIS_TYPE":0,"NORAD_CAT_ID":48055,"ELEMENT_SET_NO":999,"REV_AT_EPOCH":25836,"BSTAR":-0.00086676,"MEAN_MOTION_DOT":-0.00000304,"MEAN_MOTION_DDOT":0},{"OBJECT_NAME":"ONEWEB-0162","OBJECT_ID":"2021-025Q","EPOCH":"2026-07-23T13:01:35.352192","CLASSIFICATION_TYPE":"U","MEAN_MOTION":13.13469521,"ECCENTRICITY":0.0001867,"INCLINATION":87.8985,"RA_OF_ASC_NODE":312.9909,"ARG_OF_PERICENTER":96.3209,"MEAN_ANOMALY":263.8132,"EPHEMERIS_TYPE":0,"NORAD_CAT_ID":48056,"ELEMENT_SET_NO":999,"REV_AT_EPOCH":25831,"BSTAR":0.000071277,"MEAN_MOTION_DOT":3.9e-7,"MEAN_MOTION_DDOT":0},{"OBJECT_NAME":"ONEWEB-0155","OBJECT_ID":"2021-025R","EPOCH":"2026-07-23T16:50:53.774592","CLASSIFICATION_TYPE":"U","MEAN_MOTION":13.13468373,"ECCENTRICITY":0.0001975,"INCLINATION":87.8987,"RA_OF_ASC_NODE":312.9558,"ARG_OF_PERICENTER":96.6144,"MEAN_ANOMALY":263.521,"EPHEMERIS_TYPE":0,"NORAD_CAT_ID":48057,"ELEMENT_SET_NO":999,"REV_AT_EPOCH":25847,"BSTAR":-0.00054195,"MEAN_MOTION_DOT":-0.00000185,"MEAN_MOTION_DDOT":0},{"OBJECT_NAME":"ONEWEB-0149","OBJECT_ID":"2021-025S","EPOCH":"2026-07-23T17:22:36.484032","CLASSIFICATION_TYPE":"U","MEAN_MOTION":13.13470644,"ECCENTRICITY":0.0001789,"INCLINATION":87.8991,"RA_OF_ASC_NODE":312.9562,"ARG_OF_PERICENTER":94.4872,"MEAN_ANOMALY":265.6461,"EPHEMERIS_TYPE":0,"NORAD_CAT_ID":48058,"ELEMENT_SET_NO":999,"REV_AT_EPOCH":25828,"BSTAR":-0.00071181,"MEAN_MOTION_DOT":-0.00000247,"MEAN_MOTION_DDOT":0},{"OBJECT_NAME":"ONEWEB-0148","OBJECT_ID":"2021-025T","EPOCH":"2026-07-23T16:28:59.037024","CLASSIFICATION_TYPE":"U","MEAN_MOTION":13.1346958,"ECCENTRICITY":0.0001731,"INCLINATION":87.8981,"RA_OF_ASC_NODE":312.968,"ARG_OF_PERICENTER":83.2757,"MEAN_ANOMALY":276.8569,"EPHEMERIS_TYPE":0,"NORAD_CAT_ID":48059,"ELEMENT_SET_NO":999,"REV_AT_EPOCH":25840,"BSTAR":0.0004906,"MEAN_MOTION_DOT":0.00000192,"MEAN_MOTION_DDOT":0},{"OBJECT_NAME":"ONEWEB-0160","OBJECT_ID":"2021-025U","EPOCH":"2026-07-23T16:53:20.829984","CLASSIFICATION_TYPE":"U","MEAN_MOTION":13.13469619,"ECCENTRICITY":0.0001666,"INCLINATION":87.898,"RA_OF_ASC_NODE":312.9602,"ARG_OF_PERICENTER":120.3003,"MEAN_ANOMALY":239.8291,"EPHEMERIS_TYPE":0,"NORAD_CAT_ID":48060,"ELEMENT_SET_NO":999,"REV_AT_EPOCH":25835,"BSTAR":-0.0005354,"MEAN_MOTION_DOT":-0.00000183,"MEAN_MOTION_DDOT":0},{"OBJECT_NAME":"ONEWEB-0163","OBJECT_ID":"2021-025V","EPOCH":"2026-07-23T12:52:01.835040","CLASSIFICATION_TYPE":"U","MEAN_MOTION":13.13469418,"ECCENTRICITY":0.0002202,"INCLINATION":87.8993,"RA_OF_ASC_NODE":312.9915,"ARG_OF_PERICENTER":94.9199,"MEAN_ANOMALY":265.2182,"EPHEMERIS_TYPE":0,"NORAD_CAT_ID":48061,"ELEMENT_SET_NO":999,"REV_AT_EPOCH":25845,"BSTAR":0.00049053,"MEAN_MOTION_DOT":0.00000192,"MEAN_MOTION_DDOT":0}]}
